STARLINK-35843          
1 67606U 26018T   26052.14678626  .00329193  00000+0  21097-2 0  9994
2 67606  97.2825 117.1378 0001438 124.4877 235.6525 15.75345727  4702
STARLINK-36351          
1 67607U 26018U   26052.13302691  .00279805  00000+0  18064-2 0  9994
2 67607  97.2832 117.1583 0001597 117.3606 242.7822 15.75313238  4707
STARLINK-36411          
1 67608U 26018V   26052.11843217  .00445786  00000+0  21867-2 0  9995
2 67608  97.2844 117.1754 0001739 130.5515 229.5905 15.81060791  4700
STARLINK-36312          
1 67609U 26018W   26052.13090932  .00345631  00000+0  22111-2 0  9997
2 67609  97.2832 117.1607 0001654 123.2256 236.9168 15.75341583  4709
STARLINK-36387          
1 67610U 26018X   26052.11581834  .00250823  00000+0  12647-2 0  9994
2 67610  97.2853 117.1788 0001438 100.6250 259.5180 15.80958071  4704
STARLINK-36636          
1 67611U 26018Y   26052.11492205  .00373487  00000+0  18985-2 0  9991
2 67611  97.2865 117.1733 0003726  47.9397 312.2187 15.80461123  4706
STARLINK-36407          
1 67612U 26018Z   26052.16668981 -.00086068  00000+0 -58087-3 0  9999
2 67612  97.2843 117.2158 0001219  89.0120 149.8827 15.75234452  4792
STARLINK-36597          
1 67613U 26018AA  26052.11280828  .00447682  00000+0  21980-2 0  9997
2 67613  97.2850 117.1817 0001268  96.7743 263.3670 15.81034939  4706
NEONSAT-1A              
1 67614U 26019A   26051.92211385  .00003093  00000+0  20666-3 0  9994
2 67614  97.4103 176.1018 0012275 227.1141 132.9058 15.07642742  3299
ELECTRON KICK STAGE R/B 
1 67616U 26019C   26051.88976683  .00473900  69470-4  19336-2 0  9990
2 67616  97.4029 177.8203 0159365 183.2343 176.7905 15.69228339  3400
STARLINK-36548          
1 67617U 26020A   26051.89130149  .00423859  00000+0  24423-2 0  9993
2 67617  42.9978 244.3767 0002599 275.3467  84.7107 15.76693958  3436
STARLINK-36601          
1 67618U 26020B   26051.53602112  .00474833  00000+0  21339-2 0  9990
2 67618  42.9977 245.9900 0001823 252.4752 107.5921 15.82038173  3385
